[{"OBJECT_NAME":"PISAT","OBJECT_ID":"2016-059B","EPOCH":"2026-03-09T23:04:32.673792","MEAN_MOTION":14.68774579,"ECCENTRICITY":0.00295599,"INCLINATION":97.8192,"RA_OF_ASC_NODE":73.6916,"ARG_OF_PERICENTER":159.8662,"MEAN_ANOMALY":200.3717,"EPHEMERIS_TYPE":0,"CLASSIFICATION_TYPE":"U","NORAD_CAT_ID":41784,"ELEMENT_SET_NO":999,"REV_AT_EPOCH":50517,"BSTAR":0.00024765748,"MEAN_MOTION_DOT":1.407e-5,"MEAN_MOTION_DDOT":0},{"OBJECT_NAME":"NOAA 7 DEB","OBJECT_ID":"1981-059B","EPOCH":"2026-03-09T21:40:57.997920","MEAN_MOTION":14.66141358,"ECCENTRICITY":0.00020027,"INCLINATION":98.9426,"RA_OF_ASC_NODE":199.3656,"ARG_OF_PERICENTER":296.0325,"MEAN_ANOMALY":189.0109,"EPHEMERIS_TYPE":0,"CLASSIFICATION_TYPE":"U","NORAD_CAT_ID":12559,"ELEMENT_SET_NO":999,"REV_AT_EPOCH":34319,"BSTAR":0.0010586785,"MEAN_MOTION_DOT":5.767e-5,"MEAN_MOTION_DDOT":0}]
